CCSDS_OMM_VERS = 2.0
CREATION_DATE  = 
ORIGINATOR     = 

OBJECT_NAME    = ATLAS 5 CENTAUR R/B
OBJECT_ID      = 2025-261B
CENTER_NAME    = EARTH
REF_FRAME      = TEME
TIME_SYSTEM    = UTC
MEAN_ELEMENT_THEORY = SGP/SGP4

EPOCH          = 2025-12-08T20:04:31.158336
MEAN_MOTION    = 2.28259542
ECCENTRICITY   = .23295216
INCLINATION    = 6.1507
RA_OF_ASC_NODE = 292.0070
ARG_OF_PERICENTER = 185.6994
MEAN_ANOMALY   = 177.2847

EPHEMERIS_TYPE = 0
CLASSIFICATION_TYPE = U
NORAD_CAT_ID   = 66455
ELEMENT_SET_NO = 999
REV_AT_EPOCH   = 56
BSTAR          = 0
MEAN_MOTION_DOT = -.79E-6
MEAN_MOTION_DDOT = 0

CCSDS_OMM_VERS = 2.0
CREATION_DATE  = 
ORIGINATOR     = 

OBJECT_NAME    = STARLINK-35643
OBJECT_ID      = 2025-262A
CENTER_NAME    = EARTH
REF_FRAME      = TEME
TIME_SYSTEM    = UTC
MEAN_ELEMENT_THEORY = SGP/SGP4

EPOCH          = 2025-12-09T00:00:02.000160
MEAN_MOTION    = 15.40694804
ECCENTRICITY   = .00013822
INCLINATION    = 43.0005
RA_OF_ASC_NODE = 93.1575
ARG_OF_PERICENTER = 274.5065
MEAN_ANOMALY   = 349.6155

EPHEMERIS_TYPE = 0
CLASSIFICATION_TYPE = U
NORAD_CAT_ID   = 66456
ELEMENT_SET_NO = 999
REV_AT_EPOCH   = 503
BSTAR          = .10816818E-3
MEAN_MOTION_DOT = .4217E-4
MEAN_MOTION_DDOT = 0

CCSDS_OMM_VERS = 2.0
CREATION_DATE  = 
ORIGINATOR     = 

OBJECT_NAME    = STARLINK-35466
OBJECT_ID      = 2025-262B
CENTER_NAME    = EARTH
REF_FRAME      = TEME
TIME_SYSTEM    = UTC
MEAN_ELEMENT_THEORY = SGP/SGP4

EPOCH          = 2025-12-09T00:00:02.000160
MEAN_MOTION    = 15.40675554
ECCENTRICITY   = .0001266
INCLINATION    = 43.0006
RA_OF_ASC_NODE = 93.0959
ARG_OF_PERICENTER = 293.9673
MEAN_ANOMALY   = 355.0602

EPHEMERIS_TYPE = 0
CLASSIFICATION_TYPE = U
NORAD_CAT_ID   = 66457
ELEMENT_SET_NO = 999
REV_AT_EPOCH   = 503
BSTAR          = .39633593E-3
MEAN_MOTION_DOT = .16274E-3
MEAN_MOTION_DDOT = 0

CCSDS_OMM_VERS = 2.0
CREATION_DATE  = 
ORIGINATOR     = 

OBJECT_NAME    = STARLINK-35684
OBJECT_ID      = 2025-262C
CENTER_NAME    = EARTH
REF_FRAME      = TEME
TIME_SYSTEM    = UTC
MEAN_ELEMENT_THEORY = SGP/SGP4

EPOCH          = 2025-12-09T00:00:02.000160
MEAN_MOTION    = 15.40695940
ECCENTRICITY   = .00013775
INCLINATION    = 43.0005
RA_OF_ASC_NODE = 93.1266
ARG_OF_PERICENTER = 269.8801
MEAN_ANOMALY   = 6.6426

EPHEMERIS_TYPE = 0
CLASSIFICATION_TYPE = U
NORAD_CAT_ID   = 66458
ELEMENT_SET_NO = 999
REV_AT_EPOCH   = 503
BSTAR          = .14275863E-3
MEAN_MOTION_DOT = .5664E-4
MEAN_MOTION_DDOT = 0

CCSDS_OMM_VERS = 2.0
CREATION_DATE  = 
ORIGINATOR     = 

OBJECT_NAME    = STARLINK-35449
OBJECT_ID      = 2025-262D
CENTER_NAME    = EARTH
REF_FRAME      = TEME
TIME_SYSTEM    = UTC
MEAN_ELEMENT_THEORY = SGP/SGP4

EPOCH          = 2025-12-08T22:00:03.000096
MEAN_MOTION    = 15.41626053
ECCENTRICITY   = .00014181
INCLINATION    = 43.0001
RA_OF_ASC_NODE = 93.5486
ARG_OF_PERICENTER = 296.0815
MEAN_ANOMALY   = 262.1869

EPHEMERIS_TYPE = 0
CLASSIFICATION_TYPE = U
NORAD_CAT_ID   = 66459
ELEMENT_SET_NO = 999
REV_AT_EPOCH   = 502
BSTAR          = -.33127927E-1
MEAN_MOTION_DOT = -.1288095E-1
MEAN_MOTION_DDOT = 0

CCSDS_OMM_VERS = 2.0
CREATION_DATE  = 
ORIGINATOR     = 

OBJECT_NAME    = STARLINK-35424
OBJECT_ID      = 2025-262E
CENTER_NAME    = EARTH
REF_FRAME      = TEME
TIME_SYSTEM    = UTC
MEAN_ELEMENT_THEORY = SGP/SGP4

EPOCH          = 2025-12-08T22:00:03.000096
MEAN_MOTION    = 15.43636249
ECCENTRICITY   = .00012318
INCLINATION    = 43.0006
RA_OF_ASC_NODE = 93.5236
ARG_OF_PERICENTER = 244.6568
MEAN_ANOMALY   = 323.9429

EPHEMERIS_TYPE = 0
CLASSIFICATION_TYPE = U
NORAD_CAT_ID   = 66460
ELEMENT_SET_NO = 999
REV_AT_EPOCH   = 502
BSTAR          = -.64725925E-1
MEAN_MOTION_DOT = -.2621997E-1
MEAN_MOTION_DDOT = 0

CCSDS_OMM_VERS = 2.0
CREATION_DATE  = 
ORIGINATOR     = 

OBJECT_NAME    = STARLINK-35132
OBJECT_ID      = 2025-262F
CENTER_NAME    = EARTH
REF_FRAME      = TEME
TIME_SYSTEM    = UTC
MEAN_ELEMENT_THEORY = SGP/SGP4

EPOCH          = 2025-12-08T22:00:03.000096
MEAN_MOTION    = 15.44544070
ECCENTRICITY   = .00012628
INCLINATION    = 43.0004
RA_OF_ASC_NODE = 93.5014
ARG_OF_PERICENTER = 281.7688
MEAN_ANOMALY   = 296.0069

EPHEMERIS_TYPE = 0
CLASSIFICATION_TYPE = U
NORAD_CAT_ID   = 66461
ELEMENT_SET_NO = 999
REV_AT_EPOCH   = 502
BSTAR          = -.48954965E-1
MEAN_MOTION_DOT = -.2066577E-1
MEAN_MOTION_DDOT = 0

CCSDS_OMM_VERS = 2.0
CREATION_DATE  = 
ORIGINATOR     = 

OBJECT_NAME    = STARLINK-35499
OBJECT_ID      = 2025-262G
CENTER_NAME    = EARTH
REF_FRAME      = TEME
TIME_SYSTEM    = UTC
MEAN_ELEMENT_THEORY = SGP/SGP4

EPOCH          = 2025-12-08T22:00:03.000096
MEAN_MOTION    = 15.45880052
ECCENTRICITY   = .00011039
INCLINATION    = 43.0002
RA_OF_ASC_NODE = 93.4817
ARG_OF_PERICENTER = 272.8412
MEAN_ANOMALY   = 312.5838

EPHEMERIS_TYPE = 0
CLASSIFICATION_TYPE = U
NORAD_CAT_ID   = 66462
ELEMENT_SET_NO = 999
REV_AT_EPOCH   = 502
BSTAR          = -.4688594E-1
MEAN_MOTION_DOT = -.2072041E-1
MEAN_MOTION_DDOT = 0

CCSDS_OMM_VERS = 2.0
CREATION_DATE  = 
ORIGINATOR     = 

OBJECT_NAME    = STARLINK-35463
OBJECT_ID      = 2025-262H
CENTER_NAME    = EARTH
REF_FRAME      = TEME
TIME_SYSTEM    = UTC
MEAN_ELEMENT_THEORY = SGP/SGP4

EPOCH          = 2025-12-08T22:00:03.000096
MEAN_MOTION    = 15.48546317
ECCENTRICITY   = .00011572
INCLINATION    = 43.0003
RA_OF_ASC_NODE = 93.4538
ARG_OF_PERICENTER = 277.7649
MEAN_ANOMALY   = 318.6956

EPHEMERIS_TYPE = 0
CLASSIFICATION_TYPE = U
NORAD_CAT_ID   = 66463
ELEMENT_SET_NO = 999
REV_AT_EPOCH   = 502
BSTAR          = -.42684054E-1
MEAN_MOTION_DOT = -.2071424E-1
MEAN_MOTION_DDOT = 0

CCSDS_OMM_VERS = 2.0
CREATION_DATE  = 
ORIGINATOR     = 

OBJECT_NAME    = STARLINK-35435
OBJECT_ID      = 2025-262J
CENTER_NAME    = EARTH
REF_FRAME      = TEME
TIME_SYSTEM    = UTC
MEAN_ELEMENT_THEORY = SGP/SGP4

EPOCH          = 2025-12-08T22:00:03.000096
MEAN_MOTION    = 15.47206067
ECCENTRICITY   = .00010459
INCLINATION    = 43.0006
RA_OF_ASC_NODE = 93.4668
ARG_OF_PERICENTER = 278.6124
MEAN_ANOMALY   = 313.0424

EPHEMERIS_TYPE = 0
CLASSIFICATION_TYPE = U
NORAD_CAT_ID   = 66464
ELEMENT_SET_NO = 999
REV_AT_EPOCH   = 502
BSTAR          = -.44494807E-1
MEAN_MOTION_DOT = -.2060899E-1
MEAN_MOTION_DDOT = 0

CCSDS_OMM_VERS = 2.0
CREATION_DATE  = 
ORIGINATOR     = 

OBJECT_NAME    = STARLINK-35448
OBJECT_ID      = 2025-262K
CENTER_NAME    = EARTH
REF_FRAME      = TEME
TIME_SYSTEM    = UTC
MEAN_ELEMENT_THEORY = SGP/SGP4

EPOCH          = 2025-12-08T22:00:03.000096
MEAN_MOTION    = 15.50994130
ECCENTRICITY   = .00014227
INCLINATION    = 43.0005
RA_OF_ASC_NODE = 93.4403
ARG_OF_PERICENTER = 269.2167
MEAN_ANOMALY   = 332.7015

EPHEMERIS_TYPE = 0
CLASSIFICATION_TYPE = U
NORAD_CAT_ID   = 66465
ELEMENT_SET_NO = 999
REV_AT_EPOCH   = 502
BSTAR          = -.32869784E-1
MEAN_MOTION_DOT = -.1743271E-1
MEAN_MOTION_DDOT = 0

CCSDS_OMM_VERS = 2.0
CREATION_DATE  = 
ORIGINATOR     = 

OBJECT_NAME    = STARLINK-35388
OBJECT_ID      = 2025-262L
CENTER_NAME    = EARTH
REF_FRAME      = TEME
TIME_SYSTEM    = UTC
MEAN_ELEMENT_THEORY = SGP/SGP4

EPOCH          = 2025-12-08T22:00:03.000096
MEAN_MOTION    = 15.50601726
ECCENTRICITY   = .00016869
INCLINATION    = 43.0004
RA_OF_ASC_NODE = 93.4343
ARG_OF_PERICENTER = 267.1156
MEAN_ANOMALY   = 336.7643

EPHEMERIS_TYPE = 0
CLASSIFICATION_TYPE = U
NORAD_CAT_ID   = 66466
ELEMENT_SET_NO = 999
REV_AT_EPOCH   = 502
BSTAR          = -.50592071E-3
MEAN_MOTION_DOT = -.29933E-3
MEAN_MOTION_DDOT = 0

