ATLAS 5 CENTAUR R/B     
1 66455U 25261B   25342.83647174 -.00000079  00000+0  00000+0 0  9993
2 66455   6.1507 292.0070 2329521 185.6994 177.2847  2.28259542   569
STARLINK-35643          
1 66456U 25262A   25343.00002315  .00004217  00000+0  10817-3 0  9995
2 66456  43.0005  93.1575 0001382 274.5065 349.6155 15.40694804  5036
STARLINK-35466          
1 66457U 25262B   25343.00002315  .00016274  00000+0  39634-3 0  9990
2 66457  43.0006  93.0959 0001266 293.9673 355.0602 15.40675554  5033
STARLINK-35684          
1 66458U 25262C   25343.00002315  .00005664  00000+0  14276-3 0  9997
2 66458  43.0005  93.1266 0001377 269.8801   6.6426 15.40695940  5037
STARLINK-35449          
1 66459U 25262D   25342.91670139 -.01288095  00000+0 -33128-1 0  9991
2 66459  43.0001  93.5486 0001418 296.0815 262.1869 15.41626053  5024
STARLINK-35424          
1 66460U 25262E   25342.91670139 -.02621997  00000+0 -64726-1 0  9994
2 66460  43.0006  93.5236 0001231 244.6568 323.9429 15.43636249  5029
STARLINK-35132          
1 66461U 25262F   25342.91670139 -.02066577  00000+0 -48955-1 0  9998
2 66461  43.0004  93.5014 0001262 281.7688 296.0069 15.44544070  5022
STARLINK-35499          
1 66462U 25262G   25342.91670139 -.02072041  00000+0 -46886-1 0  9993
2 66462  43.0002  93.4817 0001103 272.8412 312.5838 15.45880052  5023
STARLINK-35463          
1 66463U 25262H   25342.91670139 -.02071424  00000+0 -42684-1 0  9990
2 66463  43.0003  93.4538 0001157 277.7649 318.6956 15.48546317  5024
STARLINK-35435          
1 66464U 25262J   25342.91670139 -.02060899  00000+0 -44495-1 0  9997
2 66464  43.0006  93.4668 0001045 278.6124 313.0424 15.47206067  5029
STARLINK-35448          
1 66465U 25262K   25342.91670139 -.01743271  00000+0 -32870-1 0  9993
2 66465  43.0005  93.4403 0001422 269.2167 332.7015 15.50994130  5021
STARLINK-35388          
1 66466U 25262L   25342.91670139 -.00029933  00000+0 -50592-3 0  9998
2 66466  43.0004  93.4343 0001686 267.1156 336.7643 15.50601726  5028
